{"type": "FeatureCollection", "features": [{"type": "Feature", "properties": {"name": "Ladakh Sovereign Territory (Northern Sector)"}, "geometry": {"type": "Polygon", "coordinates": [[[73.66019377532251, 34.6104371658426], [73.69624222899574, 34.65405302872432], [73.66694348405463, 34.66613882614598], [73.6674535174659, 34.68465838697506], [73.75008340782307, 34.787151787724895], [73.77380435778497, 34.796878583379964], [73.82114714432532, 34.79596493153639], [73.8497107447551, 34.81770990908507], [73.86741545236129, 34.811484634608235], [73.90124933089197, 34.82183079425579], [73.91815315084727, 34.81448315597294], [73.93565459188596, 34.83351347057027], [73.96438511727939, 34.84170877653884], [73.97437364712619, 34.86534060638394], [74.0303515171089, 34.87763456538295], [74.04221244175085, 34.89452774186185], [74.04388977988947, 34.92185661898782], [74.07402197243613, 34.93998054196851], [74.0605231835981, 34.99363478501738], [74.10823488822956, 35.01950167656116], [74.09773354067045, 35.03418399839285], [74.06636023783477, 35.0485310907373], [74.09325484763315, 35.09654403857655], [74.1347298393107, 35.1098993783537], [74.11067086207066, 35.13021339783012], [74.11420554664869, 35.15190083945225], [74.10203099063779, 35.14584295308987], [74.08040135743676, 35.15471174605028], [74.03907611996704, 35.14746896422139], [74.00908546632127, 35.166085194076516], [73.99978961409948, 35.184396349611916], [73.95920771666283, 35.17442297873754], [73.91727302213235, 35.21221451818553], [73.86520535854049, 35.21079825143818], [73.84680500644595, 35.22959869572327], [73.81158626999041, 35.242463780878836], [73.77753821071991, 35.243857874841126], [73.7317244191467, 35.21730055487677], [73.71637950201244, 35.2259911822473], [73.72708169426483, 35.27825642689265], [73.69987270036489, 35.32321744173163], [73.70044836989643, 35.358376283338885], [73.73890815778532, 35.42793214455287], [73.79513966716195, 35.46016146258148], [73.78490967024516, 35.52566290571855], [73.73505363022093, 35.53664792845916], [73.72079024587322, 35.55347405148632], [73.67269900215729, 35.55121914804528], [73.6354583694083, 35.571841628688276], [73.5711047975484, 35.55482454811448], [73.53205411820306, 35.571131829770195], [73.50666059201279, 35.565419404481986], [73.48175397856329, 35.5772828490243], [73.40682763588677, 35.56401187105104], [73.36743571238827, 35.605488122678764], [73.27273466647176, 35.629756985496556], [73.21553142163788, 35.675075624740316], [73.13625425962641, 35.719182067798215], [73.13573694260589, 35.79381179068167], [73.15418715671194, 35.84167226026665], [73.12766462072574, 35.85295241532174], [73.1004263799735, 35.87823196952985], [73.07775494063804, 35.88622327328551], [73.03810914482125, 35.85476225867137], [72.99971500204578, 35.86352369955915], [72.92940957389277, 35.845540293849524], [72.90466580428352, 35.853627990539394], [72.90162953477528, 35.88166942390484], [72.85762305226211, 35.87768872145739], [72.83022605958502, 35.8873613986097], [72.82527609661463, 35.87481978700362], [72.7990200980991, 35.86749044542779], [72.79807009026251, 35.85577056326093], [72.77729009336315, 35.844024155590375], [72.73754943345966, 35.85879849695311], [72.6911415164679, 35.83287699677601], [72.66040889515443, 35.84919002420031], [72.64564753730406, 35.86634787025804], [72.60158981591735, 35.87107659460918], [72.5694538394232, 35.907327071087536], [72.53372479616246, 35.91744113460072], [72.53113405619177, 35.952871875436756], [72.54840705594091, 35.9625256632288], [72.55611258392867, 35.99667416687936], [72.57324507809795, 35.99642871581261], [72.58359529998319, 36.019703434765745], [72.59602537676977, 36.02734706871229], [72.58620648424193, 36.050448465824104], [72.55003859790304, 36.05672891190983], [72.53106562497868, 36.07465494896678], [72.53660067877837, 36.114518704474676], [72.57380884869946, 36.150963177308824], [72.55154137223661, 36.18116138548959], [72.560480226881, 36.21238715544291], [72.58543097635851, 36.230520817182025], [72.59523275658648, 36.26219709531972], [72.63670472474331, 36.27648317226067], [72.68186841079859, 36.26281915817765], [72.6939709625899, 36.25009789350304], [72.692385777082, 36.2756509549277], [72.7236379790096, 36.28407046458034], [72.75047943078118, 36.30513243941061], [72.77855060922332, 36.309881063060686], [72.81566609591363, 36.33837322764242], [72.82972721733728, 36.36114387748802], [72.86637917725727, 36.373465785617555], [72.88329913734538, 36.387344963399414], [72.89018987146545, 36.42473913650201], [72.87946567100397, 36.443331337371376], [72.92227478085653, 36.46295885127], [72.9434895433078, 36.45851666081529], [72.96284665085233, 36.467493005497886], [72.99205247694033, 36.458105582506676], [73.0038554843432, 36.476080034565996], [72.9903577531079, 36.480458142029704], [72.99599587281136, 36.51490873425075], [73.06150484147531, 36.537742448155484], [73.11247233203255, 36.61009630350168], [73.0920092454304, 36.634766604795004], [73.0944272697028, 36.66710685150002], [73.08497490846531, 36.682315561813766], [73.08541951979504, 36.69972653015532], [73.10283512504105, 36.687663417232955], [73.12648105895374, 36.686621307127666], [73.1893982192525, 36.7218400795561], [73.21495566846937, 36.69998919964189], [73.25322354373162, 36.70912526212118], [73.31473586856555, 36.70642031634458], [73.33025123870374, 36.715492757185075], [73.36083626238366, 36.71545476082861], [73.37210418755825, 36.73493932209209], [73.40003388015953, 36.73174463430746], [73.44155038004607, 36.74512058654591], [73.46338208461555, 36.73169310585223], [73.48250572635823, 36.73388181289539], [73.51147487246743, 36.715422680212555], [73.52990606681158, 36.72072844016543], [73.54392200269831, 36.70935487432803], [73.60022734551563, 36.72032945863765], [73.60746198758073, 36.69851480341549], [73.63317389715769, 36.690071880812695], [73.65494306467076, 36.69609637264955], [73.70058044703006, 36.68486784317645], [73.72507774214415, 36.71000308767242], [73.78310391791155, 36.70235902744719], [73.8090608540752, 36.71671308683955], [73.8840681762054, 36.699265362306676], [73.90162601372958, 36.706962805389196], [73.89716987209198, 36.71629455405048], [73.90645300070548, 36.731484811175164], [73.90006689057458, 36.74970075908283], [73.86360160473032, 36.788243763938624], [73.82944117876747, 36.789302042055624], [73.80631287034277, 36.815399251774124], [73.77820326656757, 36.815326105415465], [73.74415236454007, 36.83338833040716], [73.72393456352933, 36.834430806536545], [73.71906642447595, 36.85720001566824], [73.6814303391389, 36.885567714078775], [73.69031770130096, 36.91212831926657], [73.71119899423826, 36.91275749306391], [73.74536672449477, 36.89640005981494], [73.76765431519453, 36.90465756289626], [73.79333610467756, 36.89372334016008], [73.80967131747735, 36.89647822349127], [73.81806709851782, 36.88565021518531], [73.83583935780018, 36.88689435618966], [73.84907855912826, 36.89990808039363], [73.87877128806457, 36.89440203782385], [73.91339132335094, 36.87127999317721], [73.9237948264701, 36.87797619764348], [73.93779995700248, 36.873949479584894], [73.99428376128662, 36.826588354069315], [74.02600175627606, 36.826279335323136], [74.05578895899333, 36.8064143950084], [74.09268321066168, 36.83858701437924], [74.1209540844635, 36.83234624818084], [74.14272805615491, 36.84010152846281], [74.15684065567177, 36.8887441060557], [74.16909912292624, 36.902541753099456], [74.26137478811603, 36.88656608026042], [74.32388385495602, 36.92267436133278], [74.36833860724101, 36.95892274059207], [74.4161580479556, 36.97306056789097], [74.4299098691452, 36.99003316080177], [74.53220938775308, 36.98684655522442], [74.55446210813983, 36.95362461228609], [74.57869093493878, 36.948593748103065], [74.5894432607979, 37.028580072312536], [74.5818401925709, 37.04343982408864], [74.65926096682023, 37.05772972764487], [74.69391502435894, 37.07784976245665], [74.71293243728223, 37.07431447443349], [74.72824336184175, 37.025987633522504], [74.75003272453068, 37.01172923321758], [74.77886248111867, 37.02978689594852], [74.84006411536672, 37.02229827814307], [74.84604631478567, 36.98993811954864], [74.92217078915064, 36.90608746876171], [74.94134029991494, 36.934723978129114], [74.99115059052741, 36.96281678706515], [75.0128187434903, 36.965981361950355], [75.01874122792537, 36.97637072143169], [75.09596073390082, 36.94278998586918], [75.15108451773636, 36.967097634648155], [75.17338247761933, 36.986125239588205], [75.20896268038342, 37.03680643187141], [75.26496179235289, 37.05192516411506], [75.27923881402012, 37.046925556769054], [75.33288995530722, 37.055277319592676], [75.34493034775738, 37.05137219437131], [75.34519657676066, 37.00306946968033], [75.35466000685386, 36.97780944245187], [75.37627797584798, 36.960450844331035], [75.4135016896513, 36.96750698535914], [75.42591981984384, 36.95575253954809], [75.42679308133569, 36.938995126523935], [75.40877326027777, 36.9166877156656], [75.41418994800773, 36.89189161270781], [75.44403915628209, 36.88723759503904], [75.45998926499266, 36.83056448886015], [75.47421085604623, 36.810752091435916], [75.6164785702299, 36.761599598242924], [75.67518963189605, 36.69603145778558], [75.74833318372953, 36.58840641842153], [75.76936460679121, 36.57333113242589], [75.80955610223236, 36.55299589794237], [75.84906521278941, 36.54432065257612], [75.92336175843843, 36.502447732476924], [76.07728845180065, 36.474273966570365], [76.17313488326829, 36.39030195227332], [76.19863562483425, 36.38744551659738], [76.25476112752409, 36.347793680933705], [76.29214205361296, 36.34909628056897], [76.32824017234611, 36.36250729737395], [76.35240797205034, 36.35987386298842], [76.40423910135348, 36.31949275538642], [76.43200397160604, 36.308160981044466], [76.45003657382887, 36.269405411530556], [76.43324623302726, 36.25116297319272], [76.4571327301914, 36.240490079953304], [76.48170678064349, 36.21140932078356], [76.54486273432781, 36.19275702002051], [76.56297323672555, 36.17306528823252], [76.60116467321114, 36.16554886698668], [76.6444493949237, 36.18402994312743], [76.66479573963176, 36.15806056844053], [76.70373604967898, 36.12886039639022], [76.71962765299384, 36.08320849267784], [76.80185287181263, 36.04785860089379], [76.80776329723841, 36.01866253604726], [76.76970192250576, 36.009437789622325], [76.75434076991064, 35.982672509528754], [76.72277072598825, 35.953430507312135], [76.77902687948693, 35.898677522050036], [76.79406916755812, 35.86276823936282], [76.81179214219367, 35.84480391366975], [76.85788803220697, 35.83116313087385], [76.89494292887315, 35.799736244632015], [76.93522436191483, 35.7840569190916], [77.02066374423646, 35.77464344633802], [77.08014330626861, 35.797565694900925], [77.11566795611134, 35.79777960674352], [77.14354197887928, 35.769678512353494], [77.16422570245425, 35.76674017811678], [77.16728194500581, 35.734579410911124], [76.0, 35.0], [74.5, 34.6], [73.5, 34.5], [73.66019377532251, 34.6104371658426]]]}}]}